NORAD_CAT_ID,OBJECT_NAME,OBJECT_TYPE,EPOCH,MEAN_MOTION,ECCENTRICITY,INCLINATION,RA_OF_ASC_NODE,ARG_OF_PERICENTER,MEAN_ANOMALY,BSTAR,MEAN_MOTION_DOT,MEAN_MOTION_DDOT,TLE_LINE0,TLE_LINE1,TLE_LINE2,SEMIMAJOR_AXIS,PERIOD,APOGEE,PERIGEE,DECAYED
53406.0,STARLINK-4533,PAYLOAD,2024-01-18 06:26:07,15.08842949,0.0001551,53.2176,22.0581,97.109,263.0079,0.00024245,3.573e-05,0.0,0 STARLINK-4533,1 53406U 22097U   24018.26814644  .00003573  00000-0  24245-3 0  9996,2 53406  53.2176  22.0581 0001551  97.1090 263.0079 15.08842949 80689,6917.871,95.437,540.809,538.663,0.0
53406.0,STARLINK-4533,PAYLOAD,2024-01-19 03:06:08,15.08845821,0.0001593,53.2176,18.1914,101.3891,258.728,0.00032967,4.963e-05,0.0,0 STARLINK-4533,1 53406U 22097U   24019.12926609  .00004963  00000-0  32967-3 0  9991,2 53406  53.2176  18.1914 0001593 101.3891 258.7280 15.08845821 80326,6917.863,95.437,540.83,538.626,0.0
53406.0,STARLINK-4533,PAYLOAD,2024-01-19 06:16:54,15.08852374,0.000159,53.2166,17.596,91.231,268.8865,0.00033331,5.022e-05,0.0,0 STARLINK-4533,1 53406U 22097U   24019.26174349  .00005022  00000-0  33331-3 0  9995,2 53406  53.2166  17.5960 0001590  91.2310 268.8865 15.08852374 80837,6917.843,95.437,540.808,538.608,0.0
53406.0,STARLINK-4533,PAYLOAD,2024-01-19 22:10:46,15.08846083,0.0001556,53.217,14.6227,108.0136,252.1025,0.00017901,2.563e-05,0.0,0 STARLINK-4533,1 53406U 22097U   24019.92414393  .00002563  00000-0  17901-3 0  9996,2 53406  53.2170  14.6227 0001556 108.0136 252.1025 15.08846083 80936,6917.862,95.437,540.803,538.65,0.0
53406.0,STARLINK-4533,PAYLOAD,2024-01-20 02:56:55,15.08844476,0.0001516,53.2154,13.7286,89.2147,270.9019,9.3328e-05,1.198e-05,0.0,0 STARLINK-4533,1 53406U 22097U   24020.12286445  .00001198  00000-0  93328-4 0  9996,2 53406  53.2154  13.7286 0001516  89.2147 270.9019 15.08844476 80475,6917.867,95.437,540.78,538.683,0.0
53406.0,STARLINK-4533,PAYLOAD,2024-01-20 04:32:18,15.08845258,0.000145,53.217,13.4332,83.8514,276.2644,0.00016544,2.346e-05,0.0,0 STARLINK-4533,1 53406U 22097U   24020.18910518  .00002346  00000-0  16544-3 0  9997,2 53406  53.2170  13.4332 0001450  83.8514 276.2644 15.08845258 80974,6917.864,95.437,540.732,538.726,0.0
53406.0,STARLINK-4533,PAYLOAD,2024-01-21 04:23:05,15.08841139,0.0001457,53.2169,8.972,86.3742,273.7417,5.4841e-05,5.85e-06,0.0,0 STARLINK-4533,1 53406U 22097U   24021.18270673  .00000585  00000-0  54841-4 0  9995,2 53406  53.2169   8.9720 0001457  86.3742 273.7417 15.08841139 80637,6917.877,95.437,540.75,538.734,0.0
53406.0,STARLINK-4533,PAYLOAD,2024-01-21 05:58:28,15.08843245,0.0001475,53.2168,8.674,90.8591,269.257,9.1192e-05,1.164e-05,0.0,0 STARLINK-4533,1 53406U 22097U   24021.24894555  .00001164  00000-0  91192-4 0  9997,2 53406  53.2168   8.6740 0001475  90.8591 269.2570 15.08843245 81133,6917.87,95.437,540.756,538.715,0.0
53406.0,STARLINK-4533,PAYLOAD,2024-01-21 09:09:15,15.08844524,0.0001485,53.2167,8.0784,94.6563,265.4599,0.00011604,1.56e-05,0.0,0 STARLINK-4533,1 53406U 22097U   24021.38142454  .00001560  00000-0  11604-3 0  9995,2 53406  53.2167   8.0784 0001485  94.6563 265.4599 15.08844524 81158,6917.867,95.437,540.759,538.704,0.0
53406.0,STARLINK-4533,PAYLOAD,2024-01-22 05:49:15,15.08845103,0.0001567,53.2176,4.2096,91.1935,268.9236,0.00016763,2.381e-05,0.0,0 STARLINK-4533,1 53406U 22097U   24022.24254272  .00002381  00000-0  16763-3 0  9996,2 53406  53.2176   4.2096 0001567  91.1935 268.9236 15.08845103 80797,6917.865,95.437,540.814,538.646,0.0
53406.0,STARLINK-4533,PAYLOAD,2024-01-23 04:04:40,15.08835796,0.0001699,53.2192,0.0539,96.995,263.1235,2.7258e-05,1.46e-06,0.0,0 STARLINK-4533,1 53406U 22097U   24023.16990998  .00000146  00000-0  27258-4 0  9999,2 53406  53.2192   0.0539 0001699  96.9950 263.1235 15.08835796 80936,6917.893,95.438,540.934,538.583,0.0
53406.0,STARLINK-4533,PAYLOAD,2024-01-24 03:55:26,15.08846401,0.0001854,53.22,355.5919,107.5408,252.5787,8.1614e-05,1.011e-05,0.0,0 STARLINK-4533,1 53406U 22097U   24024.16350590  .00001011  00000-0  81614-4 0  9996,2 53406  53.2200 355.5919 0001854 107.5408 252.5787 15.08846401 81082,6917.861,95.437,541.008,538.443,0.0
53406.0,STARLINK-4533,PAYLOAD,2024-01-24 05:30:49,15.08850475,0.0001566,53.2191,355.2956,93.1043,267.0129,0.00011337,1.517e-05,0.0,0 STARLINK-4533,1 53406U 22097U   24024.22974438  .00001517  00000-0  11337-3 0  9991,2 53406  53.2191 355.2956 0001566  93.1043 267.0129 15.08850475 81586,6917.848,95.437,540.797,538.63,0.0
53406.0,STARLINK-4533,PAYLOAD,2024-01-25 03:46:14,15.08837718,0.0001687,53.2204,351.1276,83.6952,276.4233,5.4475e-05,5.79e-06,0.0,0 STARLINK-4533,1 53406U 22097U   24025.15711616  .00000579  00000-0  54475-4 0  9999,2 53406  53.2204 351.1276 0001687  83.6952 276.4233 15.08837718 81235,6917.887,95.438,540.919,538.585,0.0
53406.0,STARLINK-4533,PAYLOAD,2024-01-26 03:37:01,15.08844952,0.0001553,53.2192,346.6746,98.7668,261.3501,5.6389e-06,-1.98e-06,0.0,0 STARLINK-4533,1 53406U 22097U   24026.15071444 -.00000198  00000-0  56389-5 0  9993,2 53406  53.2192 346.6746 0001553  98.7668 261.3501 15.08844952 81874,6917.865,95.437,540.805,538.656,0.0
53406.0,STARLINK-4533,PAYLOAD,2024-01-27 03:27:48,15.08846476,0.0001652,53.2189,342.2166,107.6337,252.4836,0.00018968,2.733e-05,0.0,0 STARLINK-4533,1 53406U 22097U   24027.14431047  .00002733  00000-0  18968-3 0  9997,2 53406  53.2189 342.2166 0001652 107.6337 252.4836 15.08846476 81539,6917.861,95.437,540.868,538.583,0.0
53406.0,STARLINK-4533,PAYLOAD,2024-01-27 06:38:34,15.08848802,0.0001668,53.2191,341.6103,114.1782,245.9385,0.0002091,3.042e-05,0.0,0 STARLINK-4533,1 53406U 22097U   24027.27678765  .00003042  00000-0  20910-3 0  9995,2 53406  53.2191 341.6103 0001668 114.1782 245.9385 15.08848802 82048,6917.853,95.437,540.872,538.565,0.0
53406.0,STARLINK-4533,PAYLOAD,2024-01-27 20:57:03,15.08839392,0.0001696,53.2201,338.9289,114.0829,246.0341,3.2493e-05,2.29e-06,0.0,0 STARLINK-4533,1 53406U 22097U   24027.87295567  .00000229  00000-0  32493-4 0  9990,2 53406  53.2201 338.9289 0001696 114.0829 246.0341 15.08839392 82134,6917.882,95.438,540.921,538.574,0.0
53406.0,STARLINK-4533,PAYLOAD,2024-01-28 03:18:35,15.08843742,0.0001565,53.2192,337.7487,108.6133,251.5029,1.2323e-05,-9.2e-07,0.0,0 STARLINK-4533,1 53406U 22097U   24028.13791340 -.00000092  00000-0  12323-4 0  9999,2 53406  53.2192 337.7487 0001565 108.6133 251.5029 15.08843742 81689,6917.869,95.437,540.817,538.651,0.0
53406.0,STARLINK-4533,PAYLOAD,2024-01-29 19:03:14,15.08839869,0.0001683,53.2198,330.3182,114.7254,245.3913,0.00015319,2.151e-05,0.0,0 STARLINK-4533,1 53406U 22097U   24029.79391514  .00002151  00000-0  15319-3 0  9995,2 53406  53.2198 330.3182 0001683 114.7254 245.3913 15.08839869 81935,6917.881,95.438,540.91,538.582,0.0
53406.0,STARLINK-4533,PAYLOAD,2024-01-30 06:10:56,15.08841923,0.0001781,53.2199,328.233,117.0143,243.1031,9.4473e-05,1.216e-05,0.0,0 STARLINK-4533,1 53406U 22097U   24030.25759530  .00001216  00000-0  94473-4 0  9994,2 53406  53.2199 328.2330 0001781 117.0143 243.1031 15.08841923 82492,6917.875,95.437,540.972,538.507,0.0
53406.0,STARLINK-4533,PAYLOAD,2024-01-31 02:50:57,15.08845284,0.0001563,53.2196,324.3655,86.8388,273.2783,1.8948e-05,1.4e-07,0.0,0 STARLINK-4533,1 53406U 22097U   24031.11871815  .00000014  00000-0  18948-4 0  9999,2 53406  53.2196 324.3655 0001563  86.8388 273.2783 15.08845284 82131,6917.864,95.437,540.811,538.648,0.0
53406.0,STARLINK-4533,PAYLOAD,2024-02-01 02:41:45,15.08836551,0.0001885,53.2199,319.9069,62.4431,297.6752,2.851e-05,1.66e-06,0.0,0 STARLINK-4533,1 53406U 22097U   24032.11232679  .00000166  00000-0  28510-4 0  9993,2 53406  53.2199 319.9069 0001885  62.4431 297.6752 15.08836551 82288,6917.891,95.438,541.06,538.452,0.0
53406.0,STARLINK-4533,PAYLOAD,2024-02-01 18:35:37,15.088158,0.0001659,53.2187,316.9411,62.4047,297.7114,0.00040417,6.146e-05,0.0,0 STARLINK-4533,1 53406U 22097U   24032.77473500  .00006146  00000-0  40417-3 0  9998,2 53406  53.2187 316.9411 0001659  62.4047 297.7114 15.08815800 82383,6917.954,95.439,540.967,538.672,0.0
53406.0,STARLINK-4533,PAYLOAD,2024-02-02 02:32:32,15.08814156,0.0001781,53.2186,315.4541,73.1997,286.9191,0.00054585,8.404e-05,0.0,0 STARLINK-4533,1 53406U 22097U   24033.10592837  .00008404  00000-0  54585-3 0  9991,2 53406  53.2186 315.4541 0001781  73.1997 286.9191 15.08814156 82433,6917.959,95.439,541.056,538.592,0.0
53406.0,STARLINK-4533,PAYLOAD,2024-02-03 00:47:55,15.08817935,0.0001747,53.2183,311.2918,67.2263,292.8914,0.0004701,7.197e-05,0.0,0 STARLINK-4533,1 53406U 22097U   24034.03328656  .00007197  00000-0  47010-3 0  9993,2 53406  53.2183 311.2918 0001747  67.2263 292.8914 15.08817935 83061,6917.948,95.439,541.021,538.604,0.0
53406.0,STARLINK-4533,PAYLOAD,2024-02-03 21:27:56,15.08841226,0.0001569,53.2178,307.4191,111.034,249.082,-5.3575e-06,-3.73e-06,0.0,0 STARLINK-4533,1 53406U 22097U   24034.89440278 -.00000373  00000-0 -53575-5 0  9998,2 53406  53.2178 307.4191 0001569 111.0340 249.0820 15.08841226 82701,6917.877,95.437,540.827,538.656,0.0
53406.0,STARLINK-4533,PAYLOAD,2024-02-04 03:49:28,15.08844056,0.0001574,53.2177,306.2286,108.0897,252.0266,1.5653e-05,-3.9e-07,0.0,0 STARLINK-4533,1 53406U 22097U   24035.15935975 -.00000039  00000-0  15653-4 0  9993,2 53406  53.2177 306.2286 0001574 108.0897 252.0266 15.08844056 83232,6917.868,95.437,540.822,538.644,0.0
53406.0,STARLINK-4533,PAYLOAD,2024-02-04 22:54:06,15.08849287,0.0001374,53.2181,302.6588,101.5604,258.5543,-2.2419e-05,-6.45e-06,0.0,0 STARLINK-4533,1 53406U 22097U   24035.95423762 -.00000645  00000-0 -22419-4 0  9999,2 53406  53.2181 302.6588 0001374 101.5604 258.5543 15.08849287 83357,6917.852,95.437,540.668,538.766,0.0
53406.0,STARLINK-4533,PAYLOAD,2024-02-05 03:40:15,15.08830806,0.0001597,53.2184,301.7657,107.26,252.8567,0.0003161,4.745e-05,0.0,0 STARLINK-4533,1 53406U 22097U   24036.15295960  .00004745  00000-0  31610-3 0  9994,2 53406  53.2184 301.7657 0001597 107.2600 252.8567 15.08830806 82891,6917.908,95.438,540.878,538.669,0.0
